{"type": "FeatureCollection", "features": [ {"type": "Feature", "properties": {"norad_id": 33939, "name": "COSMOS 2251 DEB", "group": "cosmos-2251-debris", "lat": -73.80870061052696, "lon": -17.152712867997856, "alt_km": 576.3786407412281, "timestamp": "2025-12-12T03:50:52.811474+00:00", "meta": {"OBJECT_NAME": "COSMOS 2251 DEB", "OBJECT_ID": "1993-036EU", "EPOCH": "2025-12-11T09:02:57.474240", "MEAN_MOTION": 14.99741717, "ECCENTRICITY": 0.0003448, "INCLINATION": 74.0065, "RA_OF_ASC_NODE": 83.4008, "ARG_OF_PERICENTER": 62.6749, "MEAN_ANOMALY": 297.4788, "EPHEMERIS_TYPE": 0, "CLASSIFICATION_TYPE": "U", "NORAD_CAT_ID": 33939, "ELEMENT_SET_NO": 999, "REV_AT_EPOCH": 88732, "BSTAR": 0.0068543545, "MEAN_MOTION_DOT": 0.00085715, "MEAN_MOTION_DDOT": 0}, "tle": {"line1": "1 33939U 93036EU  25345.37705410  .00085715  00000+0  68544-2 0  9998", "line2": "2 33939  74.0065  83.4008 0003448  62.6749 297.4788 14.99741717887320"}}, "geometry": {"type": "Point", "coordinates": [-17.152712867997856, -73.80870061052696]}}, {"type": "Feature", "properties": {"norad_id": 33940, "name": "COSMOS 2251 DEB", "group": "cosmos-2251-debris", "lat": 53.27524097741681, "lon": -57.95627065523601, "alt_km": 693.2153248651784, "timestamp": "2025-12-12T03:50:52.811484+00:00", "meta": {"OBJECT_NAME": "COSMOS 2251 DEB", "OBJECT_ID": "1993-036EV", "EPOCH": "2025-12-11T10:58:03.559296", "MEAN_MOTION": 14.58776032, "ECCENTRICITY": 0.00113791, "INCLINATION": 74.0397, "RA_OF_ASC_NODE": 145.9392, "ARG_OF_PERICENTER": 225.6595, "MEAN_ANOMALY": 165.7323, "EPHEMERIS_TYPE": 0, "CLASSIFICATION_TYPE": "U", "NORAD_CAT_ID": 33940, "ELEMENT_SET_NO": 999, "REV_AT_EPOCH": 88575, "BSTAR": 0.0021219943, "MEAN_MOTION_DOT": 9.909e-05, "MEAN_MOTION_DDOT": 0}, "tle": {"line1": "1 33940U 93036EV  25345.45698564  .00009909  00000+0  21220-2 0  9991", "line2": "2 33940  74.0397 145.9392 0011379 225.6595 165.7323 14.58776032885752"}}, "geometry": {"type": "Point", "coordinates": [-57.95627065523601, 53.27524097741681]}}, {"type": "Feature", "properties": {"norad_id": 33942, "name": "COSMOS 2251 DEB", "group": "cosmos-2251-debris", "lat": 3.9566286988510226, "lon": -82.96952254938608, "alt_km": 752.8143141068185, "timestamp": "2025-12-12T03:50:52.811495+00:00", "meta": {"OBJECT_NAME": "COSMOS 2251 DEB", "OBJECT_ID": "1993-036EX", "EPOCH": "2025-12-11T13:36:16.253856", "MEAN_MOTION": 14.37986216, "ECCENTRICITY": 0.0020264, "INCLINATION": 74.0367, "RA_OF_ASC_NODE": 276.9886, "ARG_OF_PERICENTER": 0.5047, "MEAN_ANOMALY": 172.6508, "EPHEMERIS_TYPE": 0, "CLASSIFICATION_TYPE": "U", "NORAD_CAT_ID": 33942, "ELEMENT_SET_NO": 999, "REV_AT_EPOCH": 88117, "BSTAR": 0.00039431781, "MEAN_MOTION_DOT": 1.169e-05, "MEAN_MOTION_DDOT": 0}, "tle": {"line1": "1 33942U 93036EX  25345.56685479  .00001169  00000+0  39432-3 0  9991", "line2": "2 33942  74.0367 276.9886 0020264   0.5047 172.6508 14.37986216881177"}}, "geometry": {"type": "Point", "coordinates": [-82.96952254938608, 3.9566286988510226]}}, {"type": "Feature", "properties": {"norad_id": 33944, "name": "COSMOS 2251 DEB", "group": "cosmos-2251-debris", "lat": -56.25025462647424, "lon": 155.35174992000444, "alt_km": 852.8930542362878, "timestamp": "2025-12-12T03:50:52.811519+00:00", "meta": {"OBJECT_NAME": "COSMOS 2251 DEB", "OBJECT_ID": "1993-036EZ", "EPOCH": "2025-12-11T08:55:47.126208", "MEAN_MOTION": 14.37339214, "ECCENTRICITY": 0.01121488, "INCLINATION": 74.0402, "RA_OF_ASC_NODE": 311.4423, "ARG_OF_PERICENTER": 51.4008, "MEAN_ANOMALY": 71.4766, "EPHEMERIS_TYPE": 0, "CLASSIFICATION_TYPE": "U", "NORAD_CAT_ID": 33944, "ELEMENT_SET_NO": 999, "REV_AT_EPOCH": 88008, "BSTAR": 0.00056798896, "MEAN_MOTION_DOT": 1.796e-05, "MEAN_MOTION_DDOT": 0}, "tle": {"line1": "1 33944U 93036EZ  25345.37207322  .00001796  00000+0  56799-3 0  9990", "line2": "2 33944  74.0402 311.4423 0112148  51.4008  71.4766 14.37339214880087"}}, "geometry": {"type": "Point", "coordinates": [155.35174992000444, -56.25025462647424]}}, {"type": "Feature", "properties": {"norad_id": 33945, "name": "COSMOS 2251 DEB", "group": "cosmos-2251-debris", "lat": 36.768016356819764, "lon": -40.31505425082874, "alt_km": 757.8437205237988, "timestamp": "2025-12-12T03:50:52.811530+00:00", "meta": {"OBJECT_NAME": "COSMOS 2251 DEB", "OBJECT_ID": "1993-036FA", "EPOCH": "2025-12-11T14:16:51.545856", "MEAN_MOTION": 14.34599559, "ECCENTRICITY": 0.0021849, "INCLINATION": 74.0297, "RA_OF_ASC_NODE": 308.3645, "ARG_OF_PERICENTER": 35.0455, "MEAN_ANOMALY": 325.213, "EPHEMERIS_TYPE": 0, "CLASSIFICATION_TYPE": "U", "NORAD_CAT_ID": 33945, "ELEMENT_SET_NO": 999, "REV_AT_EPOCH": 87999, "BSTAR": 0.00023543251, "MEAN_MOTION_DOT": 6.41e-06, "MEAN_MOTION_DDOT": 0}, "tle": {"line1": "1 33945U 93036FA  25345.59504104  .00000641  00000+0  23543-3 0  9992", "line2": "2 33945  74.0297 308.3645 0021849  35.0455 325.2130 14.34599559879992"}}, "geometry": {"type": "Point", "coordinates": [-40.31505425082874, 36.768016356819764]}}, {"type": "Feature", "properties": {"norad_id": 33948, "name": "COSMOS 2251 DEB", "group": "cosmos-2251-debris", "lat": -60.82194696742373, "lon": 157.03901661733457, "alt_km": 791.618342116275, "timestamp": "2025-12-12T03:50:52.811540+00:00", "meta": {"OBJECT_NAME": "COSMOS 2251 DEB", "OBJECT_ID": "1993-036FD", "EPOCH": "2025-12-11T08:18:45.106560", "MEAN_MOTION": 14.35627076, "ECCENTRICITY": 0.00226585, "INCLINATION": 74.0355, "RA_OF_ASC_NODE": 307.6905, "ARG_OF_PERICENTER": 23.9156, "MEAN_ANOMALY": 336.3043, "EPHEMERIS_TYPE": 0, "CLASSIFICATION_TYPE": "U", "NORAD_CAT_ID": 33948, "ELEMENT_SET_NO": 999, "REV_AT_EPOCH": 88003, "BSTAR": 0.00034859114, "MEAN_MOTION_DOT": 9.82e-06, "MEAN_MOTION_DDOT": 0}, "tle": {"line1": "1 33948U 93036FD  25345.34635540  .00000982  00000+0  34859-3 0  9997", "line2": "2 33948  74.0355 307.6905 0022658  23.9156 336.3043 14.35627076880034"}}, "geometry": {"type": "Point", "coordinates": [157.03901661733457, -60.82194696742373]}}, {"type": "Feature", "properties": {"norad_id": 33971, "name": "COSMOS 2251 DEB", "group": "cosmos-2251-debris", "lat": -52.44868737096686, "lon": -127.0735574063648, "alt_km": 757.6637584168966, "timestamp": "2025-12-12T03:50:52.811550+00:00", "meta": {"OBJECT_NAME": "COSMOS 2251 DEB", "OBJECT_ID": "1993-036FE", "EPOCH": "2025-12-11T12:15:13.957344", "MEAN_MOTION": 14.39722711, "ECCENTRICITY": 0.00185029, "INCLINATION": 74.0251, "RA_OF_ASC_NODE": 256.0045, "ARG_OF_PERICENTER": 356.7034, "MEAN_ANOMALY": 181.647, "EPHEMERIS_TYPE": 0, "CLASSIFICATION_TYPE": "U", "NORAD_CAT_ID": 33971, "ELEMENT_SET_NO": 999, "REV_AT_EPOCH": 88121, "BSTAR": 0.00048189524, "MEAN_MOTION_DOT": 1.486e-05, "MEAN_MOTION_DDOT": 0}, "tle": {"line1": "1 33971U 93036FE  25345.51057821  .00001486  00000+0  48190-3 0  9995", "line2": "2 33971  74.0251 256.0045 0018502 356.7034 181.6470 14.39722711881214"}}, "geometry": {"type": "Point", "coordinates": [-127.0735574063648, -52.44868737096686]}}, {"type": "Feature", "properties": {"norad_id": 33972, "name": "COSMOS 2251 DEB", "group": "cosmos-2251-debris", "lat": -63.53537528176081, "lon": 46.9427877739889, "alt_km": 808.4702949734019, "timestamp": "2025-12-12T03:50:52.811561+00:00", "meta": {"OBJECT_NAME": "COSMOS 2251 DEB", "OBJECT_ID": "1993-036FF", "EPOCH": "2025-12-11T00:38:11.538816", "MEAN_MOTION": 14.36201122, "ECCENTRICITY": 0.01232315, "INCLINATION": 73.9948, "RA_OF_ASC_NODE": 193.8194, "ARG_OF_PERICENTER": 1.925, "MEAN_ANOMALY": 148.1574, "EPHEMERIS_TYPE": 0, "CLASSIFICATION_TYPE": "U", "NORAD_CAT_ID": 33972, "ELEMENT_SET_NO": 999, "REV_AT_EPOCH": 87049, "BSTAR": 0.0015405762, "MEAN_MOTION_DOT": 4.877e-05, "MEAN_MOTION_DDOT": 0}, "tle": {"line1": "1 33972U 93036FF  25345.02652244  .00004877  00000+0  15406-2 0  9992", "line2": "2 33972  73.9948 193.8194 0123231   1.9250 148.1574 14.36201122870490"}}, "geometry": {"type": "Point", "coordinates": [46.9427877739889, -63.53537528176081]}}, {"type": "Feature", "properties": {"norad_id": 33973, "name": "COSMOS 2251 DEB", "group": "cosmos-2251-debris", "lat": -17.347611987752217, "lon": 98.83533341989424, "alt_km": 728.147665864366, "timestamp": "2025-12-12T03:50:52.811571+00:00", "meta": {"OBJECT_NAME": "COSMOS 2251 DEB", "OBJECT_ID": "1993-036FG", "EPOCH": "2025-12-11T14:44:00.446784", "MEAN_MOTION": 14.45388996, "ECCENTRICITY": 0.004731, "INCLINATION": 74.0082, "RA_OF_ASC_NODE": 104.9948, "ARG_OF_PERICENTER": 283.6155, "MEAN_ANOMALY": 95.7681, "EPHEMERIS_TYPE": 0, "CLASSIFICATION_TYPE": "U", "NORAD_CAT_ID": 33973, "ELEMENT_SET_NO": 999, "REV_AT_EPOCH": 88584, "BSTAR": 0.00025205547, "MEAN_MOTION_DOT": 8.71e-06, "MEAN_MOTION_DDOT": 0}, "tle": {"line1": "1 33973U 93036FG  25345.61389406  .00000871  00000+0  25206-3 0  9995", "line2": "2 33973  74.0082 104.9948 0047310 283.6155  95.7681 14.45388996885844"}}, "geometry": {"type": "Point", "coordinates": [98.83533341989424, -17.347611987752217]}}, {"type": "Feature", "properties": {"norad_id": 33975, "name": "COSMOS 2251 DEB", "group": "cosmos-2251-debris", "lat": 16.261355165443604, "lon": 90.33539766184823, "alt_km": 1021.3954312855549, "timestamp": "2025-12-12T03:50:52.811582+00:00", "meta": {"OBJECT_NAME": "COSMOS 2251 DEB", "OBJECT_ID": "1993-036FJ", "EPOCH": "2025-12-11T08:54:25.516224", "MEAN_MOTION": 14.00521461, "ECCENTRICITY": 0.0191329, "INCLINATION": 73.8024, "RA_OF_ASC_NODE": 86.8585, "ARG_OF_PERICENTER": 219.9477, "MEAN_ANOMALY": 138.7449, "EPHEMERIS_TYPE": 0, "CLASSIFICATION_TYPE": "U", "NORAD_CAT_ID": 33975, "ELEMENT_SET_NO": 999, "REV_AT_EPOCH": 85810, "BSTAR": 0.0011796959, "MEAN_MOTION_DOT": 2.027e-05, "MEAN_MOTION_DDOT": 0}, "tle": {"line1": "1 33975U 93036FJ  25345.37112866  .00002027  00000+0  11797-2 0  9998", "line2": "2 33975  73.8024  86.8585 0191329 219.9477 138.7449 14.00521461858109"}}, "geometry": {"type": "Point", "coordinates": [90.33539766184823, 16.261355165443604]}}]}